{
  "type": "FeatureCollection",
  "features": [
    {
      "type": "Feature",
      "properties": {
        "norad_id": 24946,
        "name": "IRIDIUM 33",
        "group": "iridium-33-debris",
        "lat": 27.59265072787158,
        "lon": 68.13559114376939,
        "alt_km": 778.7810105013141,
        "timestamp": "2025-12-17T10:52:54.736891+00:00",
        "meta_object_name": "IRIDIUM 33",
        "meta_object_id": "1997-051C",
        "meta_epoch": "2025-12-16T18:01:06.095136",
        "meta_mean_motion": 14.35040316,
        "meta_eccentricity": 0.00075097,
        "meta_inclination": 86.3869,
        "meta_ra_of_asc_node": 66.5381,
        "meta_arg_of_pericenter": 186.4465,
        "meta_mean_anomaly": 173.6635,
        "meta_ephemeris_type": 0,
        "meta_classification_type": "U",
        "meta_norad_cat_id": 24946,
        "meta_element_set_no": 999,
        "meta_rev_at_epoch": 47892,
        "meta_bstar": 0.00010229883,
        "meta_mean_motion_dot": 3.11e-06,
        "meta_mean_motion_ddot": 0,
        "tle_line1": "1 24946U 97051C   25350.75076499  .00000311  00000+0  10230-3 0  9992",
        "tle_line2": "2 24946  86.3869  66.5381 0007509 186.4465 173.6635 14.35040316478929"
      },
      "geometry": {
        "type": "Point",
        "coordinates": [
          68.13559114376939,
          27.59265072787158
        ]
      }
    },
    {
      "type": "Feature",
      "properties": {
        "norad_id": 33773,
        "name": "IRIDIUM 33 DEB",
        "group": "iridium-33-debris",
        "lat": 55.664923132963224,
        "lon": -126.69524765611621,
        "alt_km": 733.4297487749845,
        "timestamp": "2025-12-17T10:52:54.736922+00:00",
        "meta_object_name": "IRIDIUM 33 DEB",
        "meta_object_id": "1997-051L",
        "meta_epoch": "2025-12-16T22:39:41.403744",
        "meta_mean_motion": 14.43266321,
        "meta_eccentricity": 0.00128699,
        "meta_inclination": 86.4007,
        "meta_ra_of_asc_node": 58.8078,
        "meta_arg_of_pericenter": 134.0853,
        "meta_mean_anomaly": 226.141,
        "meta_ephemeris_type": 0,
        "meta_classification_type": "U",
        "meta_norad_cat_id": 33773,
        "meta_element_set_no": 999,
        "meta_rev_at_epoch": 88408,
        "meta_bstar": 0.0002665068,
        "meta_mean_motion_dot": 9.17e-06,
        "meta_mean_motion_ddot": 0,
        "tle_line1": "1 33773U 97051L   25350.94422921  .00000917  00000+0  26651-3 0  9992",
        "tle_line2": "2 33773  86.4007  58.8078 0012869 134.0853 226.1410 14.43266321884082"
      },
      "geometry": {
        "type": "Point",
        "coordinates": [
          -126.69524765611621,
          55.664923132963224
        ]
      }
    },
    {
      "type": "Feature",
      "properties": {
        "norad_id": 33775,
        "name": "IRIDIUM 33 DEB",
        "group": "iridium-33-debris",
        "lat": 2.4416285849717854,
        "lon": -132.6140232912858,
        "alt_km": 747.9803859938429,
        "timestamp": "2025-12-17T10:52:54.736937+00:00",
        "meta_object_name": "IRIDIUM 33 DEB",
        "meta_object_id": "1997-051N",
        "meta_epoch": "2025-12-16T22:57:10.181376",
        "meta_mean_motion": 14.41477634,
        "meta_eccentricity": 0.00147333,
        "meta_inclination": 86.3634,
        "meta_ra_of_asc_node": 47.7535,
        "meta_arg_of_pericenter": 141.846,
        "meta_mean_anomaly": 337.8084,
        "meta_ephemeris_type": 0,
        "meta_classification_type": "U",
        "meta_norad_cat_id": 33775,
        "meta_element_set_no": 999,
        "meta_rev_at_epoch": 88201,
        "meta_bstar": 0.00027617117,
        "meta_mean_motion_dot": 9.17e-06,
        "meta_mean_motion_ddot": 0,
        "tle_line1": "1 33775U 97051N   25350.95636784  .00000917  00000+0  27617-3 0  9992",
        "tle_line2": "2 33775  86.3634  47.7535 0014733 141.8460 337.8084 14.41477634882013"
      },
      "geometry": {
        "type": "Point",
        "coordinates": [
          -132.6140232912858,
          2.4416285849717854
        ]
      }
    },
    {
      "type": "Feature",
      "properties": {
        "norad_id": 33776,
        "name": "IRIDIUM 33 DEB",
        "group": "iridium-33-debris",
        "lat": -7.88739014637348,
        "lon": 78.29743957023783,
        "alt_km": 778.9395829311497,
        "timestamp": "2025-12-17T10:52:54.736949+00:00",
        "meta_object_name": "IRIDIUM 33 DEB",
        "meta_object_id": "1997-051P",
        "meta_epoch": "2025-12-17T00:02:05.456256",
        "meta_mean_motion": 14.38242699,
        "meta_eccentricity": 0.00148629,
        "meta_inclination": 86.4038,
        "meta_ra_of_asc_node": 78.9864,
        "meta_arg_of_pericenter": 176.3786,
        "meta_mean_anomaly": 357.2171,
        "meta_ephemeris_type": 0,
        "meta_classification_type": "U",
        "meta_norad_cat_id": 33776,
        "meta_element_set_no": 999,
        "meta_rev_at_epoch": 88143,
        "meta_bstar": 0.00024087301,
        "meta_mean_motion_dot": 7.52e-06,
        "meta_mean_motion_ddot": 0,
        "tle_line1": "1 33776U 97051P   25351.00145204  .00000752  00000+0  24087-3 0  9997",
        "tle_line2": "2 33776  86.4038  78.9864 0014862 176.3786 357.2171 14.38242699881436"
      },
      "geometry": {
        "type": "Point",
        "coordinates": [
          78.29743957023783,
          -7.88739014637348
        ]
      }
    },
    {
      "type": "Feature",
      "properties": {
        "norad_id": 33777,
        "name": "IRIDIUM 33 DEB",
        "group": "iridium-33-debris",
        "lat": 74.16581225824254,
        "lon": 46.0566651354319,
        "alt_km": 703.7213617110474,
        "timestamp": "2025-12-17T10:52:54.736961+00:00",
        "meta_object_name": "IRIDIUM 33 DEB",
        "meta_object_id": "1997-051Q",
        "meta_epoch": "2025-12-16T14:44:32.574624",
        "meta_mean_motion": 14.55643201,
        "meta_eccentricity": 0.00054167,
        "meta_inclination": 86.3785,
        "meta_ra_of_asc_node": 33.5183,
        "meta_arg_of_pericenter": 231.3844,
        "meta_mean_anomaly": 128.6879,
        "meta_ephemeris_type": 0,
        "meta_classification_type": "U",
        "meta_norad_cat_id": 33777,
        "meta_element_set_no": 999,
        "meta_rev_at_epoch": 88590,
        "meta_bstar": 0.0006347457,
        "meta_mean_motion_dot": 2.791e-05,
        "meta_mean_motion_ddot": 0,
        "tle_line1": "1 33777U 97051Q   25350.61426591  .00002791  00000+0  63475-3 0  9994",
        "tle_line2": "2 33777  86.3785  33.5183 0005416 231.3844 128.6879 14.55643201885902"
      },
      "geometry": {
        "type": "Point",
        "coordinates": [
          46.0566651354319,
          74.16581225824254
        ]
      }
    },
    {
      "type": "Feature",
      "properties": {
        "norad_id": 33850,
        "name": "IRIDIUM 33 DEB",
        "group": "iridium-33-debris",
        "lat": 10.089005081574335,
        "lon": -152.499477109963,
        "alt_km": 744.7459436228655,
        "timestamp": "2025-12-17T10:52:54.736973+00:00",
        "meta_object_name": "IRIDIUM 33 DEB",
        "meta_object_id": "1997-051T",
        "meta_epoch": "2025-12-16T23:02:48.261120",
        "meta_mean_motion": 14.42155288,
        "meta_eccentricity": 0.00126508,
        "meta_inclination": 86.3414,
        "meta_ra_of_asc_node": 28.3648,
        "meta_arg_of_pericenter": 148.2103,
        "meta_mean_anomaly": 342.9202,
        "meta_ephemeris_type": 0,
        "meta_classification_type": "U",
        "meta_norad_cat_id": 33850,
        "meta_element_set_no": 999,
        "meta_rev_at_epoch": 88213,
        "meta_bstar": 0.00028004209,
        "meta_mean_motion_dot": 9.42e-06,
        "meta_mean_motion_ddot": 0,
        "tle_line1": "1 33850U 97051T   25350.96028080  .00000942  00000+0  28004-3 0  9990",
        "tle_line2": "2 33850  86.3414  28.3648 0012650 148.2103 342.9202 14.42155288882135"
      },
      "geometry": {
        "type": "Point",
        "coordinates": [
          -152.499477109963,
          10.089005081574335
        ]
      }
    },
    {
      "type": "Feature",
      "properties": {
        "norad_id": 33853,
        "name": "IRIDIUM 33 DEB",
        "group": "iridium-33-debris",
        "lat": -1.541525919708782,
        "lon": 167.8524639511596,
        "alt_km": 783.1552436538523,
        "timestamp": "2025-12-17T10:52:54.736986+00:00",
        "meta_object_name": "IRIDIUM 33 DEB",
        "meta_object_id": "1997-051W",
        "meta_epoch": "2025-12-16T23:58:17.677344",
        "meta_mean_motion": 13.99087192,
        "meta_eccentricity": 0.02070549,
        "meta_inclination": 85.9997,
        "meta_ra_of_asc_node": 347.9438,
        "meta_arg_of_pericenter": 222.6309,
        "meta_mean_anomaly": 192.0216,
        "meta_ephemeris_type": 0,
        "meta_classification_type": "U",
        "meta_norad_cat_id": 33853,
        "meta_element_set_no": 999,
        "meta_rev_at_epoch": 85405,
        "meta_bstar": 0.0014446517,
        "meta_mean_motion_dot": 2.528e-05,
        "meta_mean_motion_ddot": 0,
        "tle_line1": "1 33853U 97051W   25350.99881571  .00002528  00000+0  14447-2 0  9995",
        "tle_line2": "2 33853  85.9997 347.9438 0207054 222.6309 192.0216 13.99087192854053"
      },
      "geometry": {
        "type": "Point",
        "coordinates": [
          167.8524639511596,
          -1.541525919708782
        ]
      }
    }
  ]
}